[{"OBJECT_NAME":"STARLINK-5848","OBJECT_ID":"2023-037U","EPOCH":"2026-03-09T22:17:01.219776","MEAN_MOTION":14.9832858,"ECCENTRICITY":0.00024253,"INCLINATION":69.9985,"RA_OF_ASC_NODE":263.6627,"ARG_OF_PERICENTER":272.3488,"MEAN_ANOMALY":87.7393,"EPHEMERIS_TYPE":0,"CLASSIFICATION_TYPE":"U","NORAD_CAT_ID":55932,"ELEMENT_SET_NO":999,"REV_AT_EPOCH":16451,"BSTAR":-4.2424822e-5,"MEAN_MOTION_DOT":-5.99e-6,"MEAN_MOTION_DDOT":0},{"OBJECT_NAME":"TOMORROW-S7","OBJECT_ID":"2025-081B","EPOCH":"2026-03-09T15:35:01.135680","MEAN_MOTION":14.99242141,"ECCENTRICITY":4.629e-5,"INCLINATION":45.3909,"RA_OF_ASC_NODE":132.557,"ARG_OF_PERICENTER":121.9907,"MEAN_ANOMALY":238.1016,"EPHEMERIS_TYPE":0,"CLASSIFICATION_TYPE":"U","NORAD_CAT_ID":63631,"ELEMENT_SET_NO":999,"REV_AT_EPOCH":4823,"BSTAR":0.00019092565,"MEAN_MOTION_DOT":2.135e-5,"MEAN_MOTION_DDOT":0}]
